ONEWEB-0068             
1 45446U 20020Y   26197.45130145 -.00000442  00000+0 -12834-2 0  9996
2 45446  87.8892  15.2380 0001641  92.2332 267.8984 13.11417130306431
ONEWEB-0046             
1 45447U 20020Z   26197.44294854 -.00000547  00000+0 -15803-2 0  9999
2 45447  87.8883  15.2432 0001645  84.4731 275.6585 13.11416890306447
ONEWEB-0063             
1 45448U 20020AA  26197.47193035  .00000330  00000+0  89506-3 0  9992
2 45448  87.8894  15.2393 0001912  81.9221 278.2124 13.11418173306533
ONEWEB-0019             
1 45449U 20020AB  26197.51064234 -.00000274  00000+0 -80944-3 0  9992
2 45449  87.8887  15.2158 0001989  96.5866 263.5488 13.11415309306387
ONEWEB-0094             
1 45450U 20020AC  26197.51431276  .00000094  00000+0  20936-3 0  9991
2 45450  87.9155   0.0174 0001822 100.3836 259.7501 13.17649328310176
ONEWEB-0087             
1 45451U 20020AD  26197.48182800  .00000564  00000+0  15547-2 0  9997
2 45451  87.8901  15.2136 0001586  95.1107 265.0202 13.11417156306427
ONEWEB-0082             
1 45452U 20020AE  26197.47843698  .00000481  00000+0  13204-2 0  9992
2 45452  87.8894  15.2286 0001360  88.3886 271.7397 13.11417931306513
ONEWEB-0050             
1 45453U 20020AF  26197.54983085  .00000835  00000+0  83393-4 0  9997
2 45453  88.9280 229.2219 0002439 170.4819 189.6457 14.90474932344759
ONEWEB-0034             
1 45454U 20020AG  26197.51602271 -.00000452  00000+0 -13117-2 0  9992
2 45454  87.8891  15.2302 0001814  89.9486 270.1850 13.11415295306437
ONEWEB-0060             
1 45455U 20020AH  26197.47094632  .00000253  00000+0  67770-3 0  9996
2 45455  87.8888  15.2349 0001238 121.6725 238.4524 13.11418161306389
ONEWEB-0086             
1 45456U 20020AJ  26197.44959921 -.00000513  00000+0 -14838-2 0  9992
2 45456  87.8893  15.2369 0001894 114.4106 245.7220 13.11418150306448
ONEWEB-0088             
1 45457U 20020AK  26197.50399238 -.00000034  00000+0 -13064-3 0  9998
2 45457  87.8900  15.2008 0001705  78.9303 281.2017 13.11415255306387
ONEWEB-0102             
1 47258U 20100A   26197.48527816  .00000326  00000+0  87163-3 0  9993
2 47258  87.8964 344.8484 0002070 103.8113 256.3246 13.12442215268572
ONEWEB-0109             
1 47259U 20100B   26197.41750670  .00000091  00000+0  21821-3 0  9991
2 47259  87.8974 344.8480 0002015  97.3403 262.7954 13.12442737268394
ONEWEB-0110             
1 47260U 20100C   26197.44461762 -.00000344  00000+0 -99174-3 0  9996
2 47260  87.8973 344.8267 0001828 105.3680 254.7651 13.12443897268568
ONEWEB-0111             
1 47261U 20100D   26197.47511550  .00000465  00000+0  12579-2 0  9996
2 47261  87.8972 344.8390 0001788  98.8770 261.2561 13.12443298268407
ONEWEB-0114             
1 47262U 20100E   26197.42936221 -.00000348  00000+0 -10028-2 0  9997
2 47262  87.8977 344.8466 0002138  95.6165 264.5207 13.12442584268354
ONEWEB-0117             
1 47263U 20100F   26197.42089490  .00000024  00000+0  30155-4 0  9999
2 47263  87.8972 344.8381 0001872  97.3336 262.8006 13.12441707268364
ONEWEB-0118             
1 47264U 20100G   26197.45478143 -.00000067  00000+0 -22267-3 0  9993
2 47264  87.8971 344.8343 0001997  87.2013 272.9345 13.12443394268564
ONEWEB-0119             
1 47265U 20100H   26197.48019967  .00000399  00000+0  10734-2 0  9993
2 47265  87.8961 344.8431 0001859  95.1366 264.9975 13.12442314268547
ONEWEB-0120             
1 47266U 20100J   26197.42780885 -.00000285  00000+0 -82718-3 0  9990
2 47266  87.8962 344.8548 0002049  96.2893 263.8469 13.12441354268568
ONEWEB-0121             
1 47267U 20100K   26197.49205048  .00000138  00000+0  34745-3 0  9993
2 47267  87.8973 344.8312 0001571 101.2050 258.9255 13.12441484268484
ONEWEB-0122             
1 47268U 20100L   26197.40988634  .00000343  00000+0  91905-3 0  9993
2 47268  87.8975 344.8524 0001999  99.1521 260.9834 13.12440926268389
ONEWEB-0123             
1 47269U 20100M   26197.48188885  .00000345  00000+0  92234-3 0  9990
2 47269  87.8962 344.8418 0001856  93.0860 267.0481 13.12441777268537
ONEWEB-0124             
1 47270U 20100N   26197.47172481  .00000365  00000+0  97962-3 0  9991
2 47270  87.8960 344.8465 0001767  97.2932 262.8398 13.12442898268418
ONEWEB-0125             
1 47271U 20100P   26197.44969101 -.00000233  00000+0 -68383-3 0  9993
2 47271  87.8972 344.8377 0001600  91.7472 268.3840 13.12443886268475
ONEWEB-0126             
1 47272U 20100Q   26197.47018012  .00000382  00000+0  10277-2 0  9994
2 47272  87.8967 344.8476 0001983  94.4615 265.6740 13.12442969268541
ONEWEB-0127             
1 47273U 20100R   26197.43613749 -.00000368  00000+0 -10590-2 0  9993
2 47273  87.8962 344.8516 0002013  96.2892 263.8466 13.12443218268569
ONEWEB-0128             
1 47274U 20100S   26197.45816741  .00000014  00000+0  42949-5 0  9995
2 47274  87.8961 344.8611 0001826 106.1261 254.0069 13.12443859268581
ONEWEB-0129             
1 47275U 20100T   26197.43783474 -.00000467  00000+0 -13343-2 0  9997
2 47275  87.8971 344.8416 0002962  92.0794 268.0674 13.12442007268516
