OBJECT_NAME,OBJECT_ID,EPOCH,MEAN_MOTION,ECCENTRICITY,INCLINATION,RA_OF_ASC_NODE,ARG_OF_PERICENTER,MEAN_ANOMALY,EPHEMERIS_TYPE,CLASSIFICATION_TYPE,NORAD_CAT_ID,ELEMENT_SET_NO,REV_AT_EPOCH,BSTAR,MEAN_MOTION_DOT,MEAN_MOTION_DDOT
ONEWEB-0068,2020-020Y,2026-07-16T10:49:52.445280,13.11417130,.00016415,87.8892,15.2380,92.2332,267.8984,0,U,45446,999,30643,-.1283376E-2,-.442E-5,0
ONEWEB-0046,2020-020Z,2026-07-16T10:37:50.753856,13.11416890,.00016458,87.8883,15.2432,84.4731,275.6585,0,U,45447,999,30644,-.15803482E-2,-.547E-5,0
ONEWEB-0063,2020-020AA,2026-07-16T11:19:34.782240,13.11418173,.00019129,87.8894,15.2393,81.9221,278.2124,0,U,45448,999,30653,.89505547E-3,.33E-5,0
ONEWEB-0019,2020-020AB,2026-07-16T12:15:19.498176,13.11415309,.00019894,87.8887,15.2158,96.5866,263.5488,0,U,45449,999,30638,-.8094428E-3,-.274E-5,0
ONEWEB-0094,2020-020AC,2026-07-16T12:20:36.622464,13.17649328,.00018222,87.9155,0.0174,100.3836,259.7501,0,U,45450,999,31017,.20935583E-3,.94E-6,0
ONEWEB-0087,2020-020AD,2026-07-16T11:33:49.939200,13.11417156,.00015868,87.8901,15.2136,95.1107,265.0202,0,U,45451,999,30642,.15546622E-2,.564E-5,0
ONEWEB-0082,2020-020AE,2026-07-16T11:28:56.955072,13.11417931,.00013607,87.8894,15.2286,88.3886,271.7397,0,U,45452,999,30651,.13204287E-2,.481E-5,0
ONEWEB-0050,2020-020AF,2026-07-16T13:11:45.385440,14.90474932,.00024397,88.9280,229.2219,170.4819,189.6457,0,U,45453,999,34475,.83392843E-4,.835E-5,0
ONEWEB-0034,2020-020AG,2026-07-16T12:23:04.362144,13.11415295,.00018144,87.8891,15.2302,89.9486,270.1850,0,U,45454,999,30643,-.13116721E-2,-.452E-5,0
ONEWEB-0060,2020-020AH,2026-07-16T11:18:09.762048,13.11418161,.00012388,87.8888,15.2349,121.6725,238.4524,0,U,45455,999,30638,.67769748E-3,.253E-5,0
ONEWEB-0086,2020-020AJ,2026-07-16T10:47:25.371744,13.11418150,.0001894,87.8893,15.2369,114.4106,245.7220,0,U,45456,999,30644,-.1483833E-2,-.513E-5,0
ONEWEB-0088,2020-020AK,2026-07-16T12:05:44.941632,13.11415255,.00017059,87.8900,15.2008,78.9303,281.2017,0,U,45457,999,30638,-.1306405E-3,-.34E-6,0
ONEWEB-0102,2020-100A,2026-07-16T11:38:48.033024,13.12442215,.00020703,87.8964,344.8484,103.8113,256.3246,0,U,47258,999,26857,.8716254E-3,.326E-5,0
ONEWEB-0109,2020-100B,2026-07-16T10:01:12.578880,13.12442737,.0002015,87.8974,344.8480,97.3403,262.7954,0,U,47259,999,26839,.2182057E-3,.91E-6,0
ONEWEB-0110,2020-100C,2026-07-16T10:40:14.962368,13.12443897,.00018283,87.8973,344.8267,105.3680,254.7651,0,U,47260,999,26856,-.99173808E-3,-.344E-5,0
ONEWEB-0111,2020-100D,2026-07-16T11:24:09.979200,13.12443298,.00017881,87.8972,344.8390,98.8770,261.2561,0,U,47261,999,26840,.12578922E-2,.465E-5,0
ONEWEB-0114,2020-100E,2026-07-16T10:18:16.894944,13.12442584,.00021383,87.8977,344.8466,95.6165,264.5207,0,U,47262,999,26835,-.10027993E-2,-.348E-5,0
ONEWEB-0117,2020-100F,2026-07-16T10:06:05.319360,13.12441707,.00018724,87.8972,344.8381,97.3336,262.8006,0,U,47263,999,26836,.30155138E-4,.24E-6,0
ONEWEB-0118,2020-100G,2026-07-16T10:54:53.115552,13.12443394,.00019977,87.8971,344.8343,87.2013,272.9345,0,U,47264,999,26856,-.22267033E-3,-.67E-6,0
ONEWEB-0119,2020-100H,2026-07-16T11:31:29.251488,13.12442314,.00018594,87.8961,344.8431,95.1366,264.9975,0,U,47265,999,26854,.10734352E-2,.399E-5,0
ONEWEB-0120,2020-100J,2026-07-16T10:16:02.684640,13.12441354,.0002049,87.8962,344.8548,96.2893,263.8469,0,U,47266,999,26856,-.82718428E-3,-.285E-5,0
ONEWEB-0121,2020-100K,2026-07-16T11:48:33.161472,13.12441484,.00015713,87.8973,344.8312,101.2050,258.9255,0,U,47267,999,26848,.34744901E-3,.138E-5,0
ONEWEB-0122,2020-100L,2026-07-16T09:50:14.179776,13.12440926,.00019995,87.8975,344.8524,99.1521,260.9834,0,U,47268,999,26838,.9190472E-3,.343E-5,0
ONEWEB-0123,2020-100M,2026-07-16T11:33:55.196640,13.12441777,.00018568,87.8962,344.8418,93.0860,267.0481,0,U,47269,999,26853,.92233673E-3,.345E-5,0
ONEWEB-0124,2020-100N,2026-07-16T11:19:17.023584,13.12442898,.0001767,87.8960,344.8465,97.2932,262.8398,0,U,47270,999,26841,.97962016E-3,.365E-5,0
ONEWEB-0125,2020-100P,2026-07-16T10:47:33.303264,13.12443886,.00016006,87.8972,344.8377,91.7472,268.3840,0,U,47271,999,26847,-.68383145E-3,-.233E-5,0
ONEWEB-0126,2020-100Q,2026-07-16T11:17:03.562368,13.12442969,.0001983,87.8967,344.8476,94.4615,265.6740,0,U,47272,999,26854,.10276598E-2,.382E-5,0
ONEWEB-0127,2020-100R,2026-07-16T10:28:02.279136,13.12443218,.00020132,87.8962,344.8516,96.2892,263.8466,0,U,47273,999,26856,-.10589671E-2,-.368E-5,0
ONEWEB-0128,2020-100S,2026-07-16T10:59:45.664224,13.12443859,.00018266,87.8961,344.8611,106.1261,254.0069,0,U,47274,999,26858,.429493E-5,.14E-6,0
ONEWEB-0129,2020-100T,2026-07-16T10:30:28.921536,13.12442007,.00029622,87.8971,344.8416,92.0794,268.0674,0,U,47275,999,26851,-.1334311E-2,-.467E-5,0
